{
  "type": "FeatureCollection",
  "features": [
    {
      "type": "Feature",
      "properties": {
        "norad_id": 38091,
        "name": "BEIDOU-2 G5 (C05)",
        "group": "gnss",
        "lat": -2.3634325727012246,
        "lon": 21.044461229335834,
        "alt_km": 35776.41535871157,
        "timestamp": "2025-12-16T15:45:51.287452+00:00",
        "meta_object_name": "BEIDOU-2 G5 (C05)",
        "meta_object_id": "2012-008A",
        "meta_epoch": "2025-12-16T10:12:40.413600",
        "meta_mean_motion": 1.00277384,
        "meta_eccentricity": 0.0012454,
        "meta_inclination": 3.118,
        "meta_ra_of_asc_node": 70.6994,
        "meta_arg_of_pericenter": 229.699,
        "meta_mean_anomaly": 356.9431,
        "meta_ephemeris_type": 0,
        "meta_classification_type": "U",
        "meta_norad_cat_id": 38091,
        "meta_element_set_no": 999,
        "meta_rev_at_epoch": 5053,
        "meta_bstar": 0,
        "meta_mean_motion_dot": 7.6e-07,
        "meta_mean_motion_ddot": 0,
        "tle_line1": "1 38091U 12008A   25350.42546775  .00000076  00000+0  00000+0 0  9998",
        "tle_line2": "2 38091   3.1180  70.6994 0012454 229.6990 356.9431  1.00277384 50530"
      },
      "geometry": {
        "type": "Point",
        "coordinates": [
          21.044461229335834,
          -2.3634325727012246
        ]
      }
    },
    {
      "type": "Feature",
      "properties": {
        "norad_id": 38250,
        "name": "BEIDOU-2 M3 (C11)",
        "group": "gnss",
        "lat": 18.683839544808436,
        "lon": -35.76845246551761,
        "alt_km": 21547.18149563964,
        "timestamp": "2025-12-16T15:45:51.287465+00:00",
        "meta_object_name": "BEIDOU-2 M3 (C11)",
        "meta_object_id": "2012-018A",
        "meta_epoch": "2025-12-13T22:30:51.861600",
        "meta_mean_motion": 1.86229879,
        "meta_eccentricity": 0.00242907,
        "meta_inclination": 55.9188,
        "meta_ra_of_asc_node": 311.1166,
        "meta_arg_of_pericenter": 274.3199,
        "meta_mean_anomaly": 85.3911,
        "meta_ephemeris_type": 0,
        "meta_classification_type": "U",
        "meta_norad_cat_id": 38250,
        "meta_element_set_no": 999,
        "meta_rev_at_epoch": 9249,
        "meta_bstar": 0,
        "meta_mean_motion_dot": -9.6e-07,
        "meta_mean_motion_ddot": 0,
        "tle_line1": "1 38250U 12018A   25347.93810025 -.00000096  00000+0  00000+0 0  9993",
        "tle_line2": "2 38250  55.9188 311.1166 0024290 274.3199  85.3911  1.86229879 92490"
      },
      "geometry": {
        "type": "Point",
        "coordinates": [
          -35.76845246551761,
          18.683839544808436
        ]
      }
    },
    {
      "type": "Feature",
      "properties": {
        "norad_id": 38251,
        "name": "BEIDOU-2 M4 (C12)",
        "group": "gnss",
        "lat": 50.20295895681756,
        "lon": 4.8417257093835895,
        "alt_km": 21559.922053178812,
        "timestamp": "2025-12-16T15:45:51.287479+00:00",
        "meta_object_name": "BEIDOU-2 M4 (C12)",
        "meta_object_id": "2012-018B",
        "meta_epoch": "2025-12-13T07:59:48.422112",
        "meta_mean_motion": 1.86229462,
        "meta_eccentricity": 0.00154528,
        "meta_inclination": 55.8208,
        "meta_ra_of_asc_node": 310.3658,
        "meta_arg_of_pericenter": 277.4494,
        "meta_mean_anomaly": 82.3644,
        "meta_ephemeris_type": 0,
        "meta_classification_type": "U",
        "meta_norad_cat_id": 38251,
        "meta_element_set_no": 999,
        "meta_rev_at_epoch": 9248,
        "meta_bstar": 0,
        "meta_mean_motion_dot": -9.5e-07,
        "meta_mean_motion_ddot": 0,
        "tle_line1": "1 38251U 12018B   25347.33319933 -.00000095  00000+0  00000+0 0  9999",
        "tle_line2": "2 38251  55.8208 310.3658 0015452 277.4494  82.3644  1.86229462 92489"
      },
      "geometry": {
        "type": "Point",
        "coordinates": [
          4.8417257093835895,
          50.20295895681756
        ]
      }
    },
    {
      "type": "Feature",
      "properties": {
        "norad_id": 38652,
        "name": "SES-5 (EGNOS/PRN 136)",
        "group": "gnss",
        "lat": 0.01831646579281002,
        "lon": -33.00853501477634,
        "alt_km": 35781.563117406724,
        "timestamp": "2025-12-16T15:45:51.287493+00:00",
        "meta_object_name": "SES-5 (EGNOS/PRN 136)",
        "meta_object_id": "2012-036A",
        "meta_epoch": "2025-12-15T01:25:36.857568",
        "meta_mean_motion": 1.00271394,
        "meta_eccentricity": 0.00019711,
        "meta_inclination": 0.0577,
        "meta_ra_of_asc_node": 304.8332,
        "meta_arg_of_pericenter": 324.9931,
        "meta_mean_anomaly": 200.5243,
        "meta_ephemeris_type": 0,
        "meta_classification_type": "U",
        "meta_norad_cat_id": 38652,
        "meta_element_set_no": 999,
        "meta_rev_at_epoch": 4261,
        "meta_bstar": 0,
        "meta_mean_motion_dot": 5.4e-07,
        "meta_mean_motion_ddot": 0,
        "tle_line1": "1 38652U 12036A   25349.05945437  .00000054  00000+0  00000+0 0  9993",
        "tle_line2": "2 38652   0.0577 304.8332 0001971 324.9931 200.5243  1.00271394 42613"
      },
      "geometry": {
        "type": "Point",
        "coordinates": [
          -33.00853501477634,
          0.01831646579281002
        ]
      }
    },
    {
      "type": "Feature",
      "properties": {
        "norad_id": 38775,
        "name": "BEIDOU-2 M6 (C14)",
        "group": "gnss",
        "lat": -55.57888691334541,
        "lon": -35.265555561239125,
        "alt_km": 21529.67710466295,
        "timestamp": "2025-12-16T15:45:51.287505+00:00",
        "meta_object_name": "BEIDOU-2 M6 (C14)",
        "meta_object_id": "2012-050B",
        "meta_epoch": "2025-12-14T02:49:55.180128",
        "meta_mean_motion": 1.86230875,
        "meta_eccentricity": 0.0011244,
        "meta_inclination": 56.3796,
        "meta_ra_of_asc_node": 69.0216,
        "meta_arg_of_pericenter": 344.0149,
        "meta_mean_anomaly": 15.9678,
        "meta_ephemeris_type": 0,
        "meta_classification_type": "U",
        "meta_norad_cat_id": 38775,
        "meta_element_set_no": 999,
        "meta_rev_at_epoch": 8986,
        "meta_bstar": 0,
        "meta_mean_motion_dot": -8.2e-07,
        "meta_mean_motion_ddot": 0,
        "tle_line1": "1 38775U 12050B   25348.11799977 -.00000082  00000+0  00000+0 0  9999",
        "tle_line2": "2 38775  56.3796  69.0216 0011244 344.0149  15.9678  1.86230875 89866"
      },
      "geometry": {
        "type": "Point",
        "coordinates": [
          -35.265555561239125,
          -55.57888691334541
        ]
      }
    },
    {
      "type": "Feature",
      "properties": {
        "norad_id": 38779,
        "name": "GSAT-10 (GAGAN/PRN 128)",
        "group": "gnss",
        "lat": 0.0721984913764878,
        "lon": 44.98543922616444,
        "alt_km": 35784.35789887267,
        "timestamp": "2025-12-16T15:45:51.287517+00:00",
        "meta_object_name": "GSAT-10 (GAGAN/PRN 128)",
        "meta_object_id": "2012-051B",
        "meta_epoch": "2025-12-15T18:15:38.450016",
        "meta_mean_motion": 1.00272901,
        "meta_eccentricity": 0.00024981,
        "meta_inclination": 0.0827,
        "meta_ra_of_asc_node": 266.091,
        "meta_arg_of_pericenter": 221.2869,
        "meta_mean_anomaly": 314.2077,
        "meta_ephemeris_type": 0,
        "meta_classification_type": "U",
        "meta_norad_cat_id": 38779,
        "meta_element_set_no": 999,
        "meta_rev_at_epoch": 4826,
        "meta_bstar": 0,
        "meta_mean_motion_dot": -1.43e-06,
        "meta_mean_motion_ddot": 0,
        "tle_line1": "1 38779U 12051B   25349.76086169 -.00000143  00000+0  00000+0 0  9996",
        "tle_line2": "2 38779   0.0827 266.0910 0002498 221.2869 314.2077  1.00272901 48266"
      },
      "geometry": {
        "type": "Point",
        "coordinates": [
          44.98543922616444,
          0.0721984913764878
        ]
      }
    },
    {
      "type": "Feature",
      "properties": {
        "norad_id": 38833,
        "name": "GPS BIIF-3  (PRN 24)",
        "group": "gnss",
        "lat": -38.2036240478891,
        "lon": 6.63792070405668,
        "alt_km": 20639.73185360589,
        "timestamp": "2025-12-16T15:45:51.287529+00:00",
        "meta_object_name": "GPS BIIF-3  (PRN 24)",
        "meta_object_id": "2012-053A",
        "meta_epoch": "2025-12-14T20:17:27.870144",
        "meta_mean_motion": 2.00565059,
        "meta_eccentricity": 0.01759136,
        "meta_inclination": 53.558,
        "meta_ra_of_asc_node": 151.1523,
        "meta_arg_of_pericenter": 64.0191,
        "meta_mean_anomaly": 297.785,
        "meta_ephemeris_type": 0,
        "meta_classification_type": "U",
        "meta_norad_cat_id": 38833,
        "meta_element_set_no": 999,
        "meta_rev_at_epoch": 9574,
        "meta_bstar": 0,
        "meta_mean_motion_dot": 8.8e-07,
        "meta_mean_motion_ddot": 0,
        "tle_line1": "1 38833U 12053A   25348.84546146  .00000088  00000+0  00000+0 0  9990",
        "tle_line2": "2 38833  53.5580 151.1523 0175913  64.0191 297.7850  2.00565059 95743"
      },
      "geometry": {
        "type": "Point",
        "coordinates": [
          6.63792070405668,
          -38.2036240478891
        ]
      }
    }
  ]
}